[{"OBJECT_NAME":"ORBCOMM FM36","OBJECT_ID":"1999-065E","EPOCH":"2026-03-02T09:48:10.385856","MEAN_MOTION":14.38960468,"ECCENTRICITY":0.00021442,"INCLINATION":45.0394,"RA_OF_ASC_NODE":306.4122,"ARG_OF_PERICENTER":147.2177,"MEAN_ANOMALY":212.8806,"EPHEMERIS_TYPE":0,"CLASSIFICATION_TYPE":"U","NORAD_CAT_ID":25984,"ELEMENT_SET_NO":999,"REV_AT_EPOCH":37160,"BSTAR":0.00049017974,"MEAN_MOTION_DOT":1.383e-5,"MEAN_MOTION_DDOT":0},{"OBJECT_NAME":"ORBCOMM FM35","OBJECT_ID":"1999-065F","EPOCH":"2026-03-02T17:15:42.038784","MEAN_MOTION":14.37854332,"ECCENTRICITY":0.0003443,"INCLINATION":45.0401,"RA_OF_ASC_NODE":312.1009,"ARG_OF_PERICENTER":266.3265,"MEAN_ANOMALY":93.719,"EPHEMERIS_TYPE":0,"CLASSIFICATION_TYPE":"U","NORAD_CAT_ID":25985,"ELEMENT_SET_NO":999,"REV_AT_EPOCH":37198,"BSTAR":0.00043676,"MEAN_MOTION_DOT":1.187e-5,"MEAN_MOTION_DDOT":0},{"OBJECT_NAME":"ORBCOMM FM34","OBJECT_ID":"1999-065G","EPOCH":"2026-03-02T01:32:32.827776","MEAN_MOTION":14.37766617,"ECCENTRICITY":0.00028379,"INCLINATION":45.0397,"RA_OF_ASC_NODE":315.7098,"ARG_OF_PERICENTER":205.4222,"MEAN_ANOMALY":154.6488,"EPHEMERIS_TYPE":0,"CLASSIFICATION_TYPE":"U","NORAD_CAT_ID":25986,"ELEMENT_SET_NO":999,"REV_AT_EPOCH":37200,"BSTAR":0.00037378927,"MEAN_MOTION_DOT":9.93e-6,"MEAN_MOTION_DDOT":0},{"OBJECT_NAME":"ORBCOMM FM38","OBJECT_ID":"2008-031A","EPOCH":"2026-03-02T15:34:46.697376","MEAN_MOTION":14.82694536,"ECCENTRICITY":0.0003863,"INCLINATION":48.4385,"RA_OF_ASC_NODE":162.2872,"ARG_OF_PERICENTER":74.9274,"MEAN_ANOMALY":285.207,"EPHEMERIS_TYPE":0,"CLASSIFICATION_TYPE":"U","NORAD_CAT_ID":33060,"ELEMENT_SET_NO":999,"REV_AT_EPOCH":95308,"BSTAR":0.00033364,"MEAN_MOTION_DOT":2.504e-5,"MEAN_MOTION_DDOT":0},{"OBJECT_NAME":"ORBCOMM FM41","OBJECT_ID":"2008-031B","EPOCH":"2026-03-02T16:32:29.134176","MEAN_MOTION":14.82230136,"ECCENTRICITY":0.0003191,"INCLINATION":48.4422,"RA_OF_ASC_NODE":170.8074,"ARG_OF_PERICENTER":54.8287,"MEAN_ANOMALY":94.8832,"EPHEMERIS_TYPE":0,"CLASSIFICATION_TYPE":"U","NORAD_CAT_ID":33061,"ELEMENT_SET_NO":999,"REV_AT_EPOCH":95256,"BSTAR":0.00032254,"MEAN_MOTION_DOT":2.386e-5,"MEAN_MOTION_DDOT":0},{"OBJECT_NAME":"ORBCOMM FM29","OBJECT_ID":"2008-031C","EPOCH":"2026-03-02T15:00:00.190944","MEAN_MOTION":14.8240246,"ECCENTRICITY":0.0004793,"INCLINATION":48.4372,"RA_OF_ASC_NODE":178.5509,"ARG_OF_PERICENTER":55.8343,"MEAN_ANOMALY":317.907,"EPHEMERIS_TYPE":0,"CLASSIFICATION_TYPE":"U","NORAD_CAT_ID":33062,"ELEMENT_SET_NO":999,"REV_AT_EPOCH":95247,"BSTAR":0.00034717,"MEAN_MOTION_DOT":2.596e-5,"MEAN_MOTION_DDOT":0},{"OBJECT_NAME":"ORBCOMM FM39","OBJECT_ID":"2008-031D","EPOCH":"2026-03-02T18:49:27.161760","MEAN_MOTION":14.80786009,"ECCENTRICITY":0.0005958,"INCLINATION":48.4382,"RA_OF_ASC_NODE":205.0478,"ARG_OF_PERICENTER":24.0572,"MEAN_ANOMALY":336.0621,"EPHEMERIS_TYPE":0,"CLASSIFICATION_TYPE":"U","NORAD_CAT_ID":33063,"ELEMENT_SET_NO":999,"REV_AT_EPOCH":95210,"BSTAR":0.00033054,"MEAN_MOTION_DOT":2.362e-5,"MEAN_MOTION_DDOT":0},{"OBJECT_NAME":"ORBCOMM FM37","OBJECT_ID":"2008-031E","EPOCH":"2026-03-02T15:41:53.940192","MEAN_MOTION":14.80979534,"ECCENTRICITY":0.0004417,"INCLINATION":48.4378,"RA_OF_ASC_NODE":193.7895,"ARG_OF_PERICENTER":44.2745,"MEAN_ANOMALY":329.2713,"EPHEMERIS_TYPE":0,"CLASSIFICATION_TYPE":"U","NORAD_CAT_ID":33064,"ELEMENT_SET_NO":999,"REV_AT_EPOCH":95234,"BSTAR":0.00032436,"MEAN_MOTION_DOT":2.325e-5,"MEAN_MOTION_DDOT":0},{"OBJECT_NAME":"ORBCOMM FM40","OBJECT_ID":"2008-031F","EPOCH":"2026-03-02T16:58:07.302144","MEAN_MOTION":14.83612807,"ECCENTRICITY":0.000524,"INCLINATION":48.4397,"RA_OF_ASC_NODE":172.9223,"ARG_OF_PERICENTER":63.615,"MEAN_ANOMALY":80.1385,"EPHEMERIS_TYPE":0,"CLASSIFICATION_TYPE":"U","NORAD_CAT_ID":33065,"ELEMENT_SET_NO":999,"REV_AT_EPOCH":95252,"BSTAR":0.00038859,"MEAN_MOTION_DOT":3.023e-5,"MEAN_MOTION_DDOT":0},{"OBJECT_NAME":"VESSELSAT 1","OBJECT_ID":"2011-058C","EPOCH":"2026-03-02T18:55:49.155168","MEAN_MOTION":14.11418647,"ECCENTRICITY":0.001373,"INCLINATION":19.963,"RA_OF_ASC_NODE":329.0111,"ARG_OF_PERICENTER":151.0879,"MEAN_ANOMALY":209.0287,"EPHEMERIS_TYPE":0,"CLASSIFICATION_TYPE":"U","NORAD_CAT_ID":37840,"ELEMENT_SET_NO":999,"REV_AT_EPOCH":74288,"BSTAR":7.0471e-5,"MEAN_MOTION_DOT":3.95e-6,"MEAN_MOTION_DDOT":0},{"OBJECT_NAME":"ORBCOMM FM109","OBJECT_ID":"2014-040A","EPOCH":"2026-03-02T12:39:11.044224","MEAN_MOTION":14.58708802,"ECCENTRICITY":0.00011432,"INCLINATION":47.002,"RA_OF_ASC_NODE":235.7184,"ARG_OF_PERICENTER":101.2649,"MEAN_ANOMALY":258.8365,"EPHEMERIS_TYPE":0,"CLASSIFICATION_TYPE":"U","NORAD_CAT_ID":40086,"ELEMENT_SET_NO":999,"REV_AT_EPOCH":61877,"BSTAR":0.00018179759,"MEAN_MOTION_DOT":6.86e-6,"MEAN_MOTION_DDOT":0},{"OBJECT_NAME":"ORBCOMM FM107","OBJECT_ID":"2014-040B","EPOCH":"2026-03-02T13:00:49.900608","MEAN_MOTION":14.58792102,"ECCENTRICITY":7.38e-5,"INCLINATION":47.0034,"RA_OF_ASC_NODE":236.5016,"ARG_OF_PERICENTER":351.0867,"MEAN_ANOMALY":9.0006,"EPHEMERIS_TYPE":0,"CLASSIFICATION_TYPE":"U","NORAD_CAT_ID":40087,"ELEMENT_SET_NO":999,"REV_AT_EPOCH":61885,"BSTAR":0.00021926,"MEAN_MOTION_DOT":8.64e-6,"MEAN_MOTION_DDOT":0},{"OBJECT_NAME":"ORBCOMM FM106","OBJECT_ID":"2014-040C","EPOCH":"2026-03-02T03:07:15.482784","MEAN_MOTION":14.70278722,"ECCENTRICITY":0.00162807,"INCLINATION":47.0609,"RA_OF_ASC_NODE":39.6269,"ARG_OF_PERICENTER":189.3078,"MEAN_ANOMALY":170.7514,"EPHEMERIS_TYPE":0,"CLASSIFICATION_TYPE":"U","NORAD_CAT_ID":40088,"ELEMENT_SET_NO":999,"REV_AT_EPOCH":62142,"BSTAR":0.00023114265,"MEAN_MOTION_DOT":1.221e-5,"MEAN_MOTION_DDOT":0},{"OBJECT_NAME":"ORBCOMM FM111","OBJECT_ID":"2014-040D","EPOCH":"2026-03-02T14:07:10.022880","MEAN_MOTION":14.8828866,"ECCENTRICITY":0.0028412,"INCLINATION":46.9988,"RA_OF_ASC_NODE":211.6175,"ARG_OF_PERICENTER":349.4563,"MEAN_ANOMALY":10.5736,"EPHEMERIS_TYPE":0,"CLASSIFICATION_TYPE":"U","NORAD_CAT_ID":40089,"ELEMENT_SET_NO":999,"REV_AT_EPOCH":62869,"BSTAR":0.00041414,"MEAN_MOTION_DOT":3.679e-5,"MEAN_MOTION_DDOT":0},{"OBJECT_NAME":"ORBCOMM FM104","OBJECT_ID":"2014-040E","EPOCH":"2026-03-02T14:40:05.524320","MEAN_MOTION":14.57154032,"ECCENTRICITY":0.0016501,"INCLINATION":47.0043,"RA_OF_ASC_NODE":272.9253,"ARG_OF_PERICENTER":305.348,"MEAN_ANOMALY":54.5862,"EPHEMERIS_TYPE":0,"CLASSIFICATION_TYPE":"U","NORAD_CAT_ID":40090,"ELEMENT_SET_NO":999,"REV_AT_EPOCH":61830,"BSTAR":0.00017723,"MEAN_MOTION_DOT":6.37e-6,"MEAN_MOTION_DDOT":0},{"OBJECT_NAME":"ORBCOMM FM103","OBJECT_ID":"2014-040F","EPOCH":"2026-03-02T12:42:32.306112","MEAN_MOTION":14.58695256,"ECCENTRICITY":0.00012965,"INCLINATION":47.0039,"RA_OF_ASC_NODE":237.2776,"ARG_OF_PERICENTER":7.2561,"MEAN_ANOMALY":352.8344,"EPHEMERIS_TYPE":0,"CLASSIFICATION_TYPE":"U","NORAD_CAT_ID":40091,"ELEMENT_SET_NO":999,"REV_AT_EPOCH":60181,"BSTAR":0.00021224857,"MEAN_MOTION_DOT":8.29e-6,"MEAN_MOTION_DDOT":0},{"OBJECT_NAME":"ORBCOMM FM114","OBJECT_ID":"2015-081A","EPOCH":"2026-03-02T13:05:01.412736","MEAN_MOTION":14.58716063,"ECCENTRICITY":0.0001296,"INCLINATION":47.0042,"RA_OF_ASC_NODE":146.1443,"ARG_OF_PERICENTER":67.9752,"MEAN_ANOMALY":292.1272,"EPHEMERIS_TYPE":0,"CLASSIFICATION_TYPE":"U","NORAD_CAT_ID":41179,"ELEMENT_SET_NO":999,"REV_AT_EPOCH":54218,"BSTAR":0.00018992,"MEAN_MOTION_DOT":7.24e-6,"MEAN_MOTION_DDOT":0}]
